{
  "type": "FeatureCollection",
  "features": [
    {
      "type": "Feature",
      "properties": {
        "norad_id": 61182,
        "name": "GSAT0232 (GALILEO 32)",
        "group": "gnss",
        "lat": 52.959322727868816,
        "lon": -66.59385293128385,
        "alt_km": 23221.197475318055,
        "timestamp": "2025-12-05T05:43:15.353109+00:00",
        "meta_object_name": "GSAT0232 (GALILEO 32)",
        "meta_object_id": "2024-167A",
        "meta_epoch": "2025-11-29T15:16:36.414048",
        "meta_mean_motion": 1.70473184,
        "meta_eccentricity": 0.00022439,
        "meta_inclination": 55.2459,
        "meta_ra_of_asc_node": 226.7912,
        "meta_arg_of_pericenter": 216.1557,
        "meta_mean_anomaly": 22.2275,
        "meta_ephemeris_type": 0,
        "meta_classification_type": "U",
        "meta_norad_cat_id": 61182,
        "meta_element_set_no": 999,
        "meta_rev_at_epoch": 747,
        "meta_bstar": 0,
        "meta_mean_motion_dot": 2.7e-07,
        "meta_mean_motion_ddot": 0,
        "tle_line1": "1 61182U 24167A   25333.63653257  .00000027  00000+0  00000+0 0  9998",
        "tle_line2": "2 61182  55.2459 226.7912 0002243 216.1557  22.2275  1.70473184  7470"
      },
      "geometry": {
        "type": "Point",
        "coordinates": [
          -66.59385293128385,
          52.959322727868816
        ]
      }
    },
    {
      "type": "Feature",
      "properties": {
        "norad_id": 61183,
        "name": "GSAT0226 (GALILEO 31)",
        "group": "gnss",
        "lat": -7.35514443338297,
        "lon": 51.78442345095417,
        "alt_km": 23221.97420594905,
        "timestamp": "2025-12-05T05:43:15.353121+00:00",
        "meta_object_name": "GSAT0226 (GALILEO 31)",
        "meta_object_id": "2024-167B",
        "meta_epoch": "2025-11-26T08:32:06.516672",
        "meta_mean_motion": 1.70473481,
        "meta_eccentricity": 6.079e-05,
        "meta_inclination": 55.246,
        "meta_ra_of_asc_node": 226.8867,
        "meta_arg_of_pericenter": 154.246,
        "meta_mean_anomaly": 343.2327,
        "meta_ephemeris_type": 0,
        "meta_classification_type": "U",
        "meta_norad_cat_id": 61183,
        "meta_element_set_no": 999,
        "meta_rev_at_epoch": 739,
        "meta_bstar": 0,
        "meta_mean_motion_dot": 3e-07,
        "meta_mean_motion_ddot": 0,
        "tle_line1": "1 61183U 24167B   25330.35563098  .00000030  00000+0  00000+0 0  9992",
        "tle_line2": "2 61183  55.2460 226.8867 0000607 154.2460 343.2327  1.70473481  7395"
      },
      "geometry": {
        "type": "Point",
        "coordinates": [
          51.78442345095417,
          -7.35514443338297
        ]
      }
    },
    {
      "type": "Feature",
      "properties": {
        "norad_id": 61186,
        "name": "BEIDOU-3 M25 (C47)",
        "group": "gnss",
        "lat": 51.76449367329031,
        "lon": 64.74014737337325,
        "alt_km": 21537.30652774508,
        "timestamp": "2025-12-05T05:43:15.353132+00:00",
        "meta_object_name": "BEIDOU-3 M25 (C47)",
        "meta_object_id": "2024-168B",
        "meta_epoch": "2025-12-04T06:41:34.098432",
        "meta_mean_motion": 1.86229712,
        "meta_eccentricity": 0.0005502,
        "meta_inclination": 54.6499,
        "meta_ra_of_asc_node": 309.0133,
        "meta_arg_of_pericenter": 294.1783,
        "meta_mean_anomaly": 248.0837,
        "meta_ephemeris_type": 0,
        "meta_classification_type": "U",
        "meta_norad_cat_id": 61186,
        "meta_element_set_no": 999,
        "meta_rev_at_epoch": 815,
        "meta_bstar": 0,
        "meta_mean_motion_dot": -6.9e-07,
        "meta_mean_motion_ddot": 0,
        "tle_line1": "1 61186U 24168B   25338.27886688 -.00000069  00000+0  00000+0 0  9991",
        "tle_line2": "2 61186  54.6499 309.0133 0005502 294.1783 248.0837  1.86229712  8150"
      },
      "geometry": {
        "type": "Point",
        "coordinates": [
          64.74014737337325,
          51.76449367329031
        ]
      }
    },
    {
      "type": "Feature",
      "properties": {
        "norad_id": 61187,
        "name": "BEIDOU-3 M27 (C49)",
        "group": "gnss",
        "lat": -45.23311674828086,
        "lon": 174.61806388506986,
        "alt_km": 21533.2144201708,
        "timestamp": "2025-12-05T05:43:15.353145+00:00",
        "meta_object_name": "BEIDOU-3 M27 (C49)",
        "meta_object_id": "2024-168C",
        "meta_epoch": "2025-12-04T01:54:08.310240",
        "meta_mean_motion": 1.86229854,
        "meta_eccentricity": 0.00022821,
        "meta_inclination": 54.6454,
        "meta_ra_of_asc_node": 309.0039,
        "meta_arg_of_pericenter": 329.4527,
        "meta_mean_anomaly": 213.9234,
        "meta_ephemeris_type": 0,
        "meta_classification_type": "U",
        "meta_norad_cat_id": 61187,
        "meta_element_set_no": 999,
        "meta_rev_at_epoch": 562,
        "meta_bstar": 0,
        "meta_mean_motion_dot": -6.8e-07,
        "meta_mean_motion_ddot": 0,
        "tle_line1": "1 61187U 24168C   25338.07926285 -.00000068  00000+0  00000+0 0  9997",
        "tle_line2": "2 61187  54.6454 309.0039 0002282 329.4527 213.9234  1.86229854  5625"
      },
      "geometry": {
        "type": "Point",
        "coordinates": [
          174.61806388506986,
          -45.23311674828086
        ]
      }
    },
    {
      "type": "Feature",
      "properties": {
        "norad_id": 62339,
        "name": "GPS BIII-7  (PRN 01)",
        "group": "gnss",
        "lat": -47.35171850597766,
        "lon": -148.2427883404462,
        "alt_km": 20192.29938846746,
        "timestamp": "2025-12-05T05:43:15.353158+00:00",
        "meta_object_name": "GPS BIII-7  (PRN 01)",
        "meta_object_id": "2024-242A",
        "meta_epoch": "2025-12-04T03:38:20.685120",
        "meta_mean_motion": 2.00567235,
        "meta_eccentricity": 0.0011725,
        "meta_inclination": 54.9261,
        "meta_ra_of_asc_node": 342.0885,
        "meta_arg_of_pericenter": 343.4986,
        "meta_mean_anomaly": 195.9397,
        "meta_ephemeris_type": 0,
        "meta_classification_type": "U",
        "meta_norad_cat_id": 62339,
        "meta_element_set_no": 999,
        "meta_rev_at_epoch": 734,
        "meta_bstar": 0,
        "meta_mean_motion_dot": -7.2e-07,
        "meta_mean_motion_ddot": 0,
        "tle_line1": "1 62339U 24242A   25338.15162830 -.00000072  00000+0  00000+0 0  9992",
        "tle_line2": "2 62339  54.9261 342.0885 0011725 343.4986 195.9397  2.00567235  7342"
      },
      "geometry": {
        "type": "Point",
        "coordinates": [
          -148.2427883404462,
          -47.35171850597766
        ]
      }
    },
    {
      "type": "Feature",
      "properties": {
        "norad_id": 62850,
        "name": "NVS-02 (IRNSS-1K)",
        "group": "gnss",
        "lat": 12.196730824291452,
        "lon": 116.09031637344283,
        "alt_km": 12772.392784378855,
        "timestamp": "2025-12-05T05:43:15.353196+00:00",
        "meta_object_name": "NVS-02 (IRNSS-1K)",
        "meta_object_id": "2025-020A",
        "meta_epoch": "2025-12-04T06:38:07.363104",
        "meta_mean_motion": 2.1758608,
        "meta_eccentricity": 0.734787,
        "meta_inclination": 21.0056,
        "meta_ra_of_asc_node": 330.7198,
        "meta_arg_of_pericenter": 20.7453,
        "meta_mean_anomaly": 357.9063,
        "meta_ephemeris_type": 0,
        "meta_classification_type": "U",
        "meta_norad_cat_id": 62850,
        "meta_element_set_no": 999,
        "meta_rev_at_epoch": 673,
        "meta_bstar": 0.00056843,
        "meta_mean_motion_dot": 9.64e-06,
        "meta_mean_motion_ddot": 0,
        "tle_line1": "1 62850U 25020A   25338.27647411  .00000964  00000+0  56843-3 0  9990",
        "tle_line2": "2 62850  21.0056 330.7198 7347870  20.7453 357.9063  2.17586080  6731"
      },
      "geometry": {
        "type": "Point",
        "coordinates": [
          116.09031637344283,
          12.196730824291452
        ]
      }
    },
    {
      "type": "Feature",
      "properties": {
        "norad_id": 63130,
        "name": "COSMOS 2584 (704K)",
        "group": "gnss",
        "lat": -61.32798953314626,
        "lon": 20.87103330295324,
        "alt_km": 19130.38510731778,
        "timestamp": "2025-12-05T05:43:15.353211+00:00",
        "meta_object_name": "COSMOS 2584 (704K)",
        "meta_object_id": "2025-042A",
        "meta_epoch": "2025-11-26T10:06:10.904256",
        "meta_mean_motion": 2.13103062,
        "meta_eccentricity": 0.00075218,
        "meta_inclination": 64.9668,
        "meta_ra_of_asc_node": 79.7019,
        "meta_arg_of_pericenter": 212.3772,
        "meta_mean_anomaly": 147.585,
        "meta_ephemeris_type": 0,
        "meta_classification_type": "U",
        "meta_norad_cat_id": 63130,
        "meta_element_set_no": 999,
        "meta_rev_at_epoch": 572,
        "meta_bstar": 0,
        "meta_mean_motion_dot": 1.8e-07,
        "meta_mean_motion_ddot": 0,
        "tle_line1": "1 63130U 25042A   25330.42095954  .00000018  00000+0  00000+0 0  9994",
        "tle_line2": "2 63130  64.9668  79.7019 0007521 212.3772 147.5850  2.13103062  5728"
      },
      "geometry": {
        "type": "Point",
        "coordinates": [
          20.87103330295324,
          -61.32798953314626
        ]
      }
    }
  ]
}